NORAD_CAT_ID,OBJECT_NAME,OBJECT_TYPE,EPOCH,MEAN_MOTION,ECCENTRICITY,INCLINATION,RA_OF_ASC_NODE,ARG_OF_PERICENTER,MEAN_ANOMALY,BSTAR,MEAN_MOTION_DOT,MEAN_MOTION_DDOT,TLE_LINE0,TLE_LINE1,TLE_LINE2,SEMIMAJOR_AXIS,PERIOD,APOGEE,PERIGEE,DECAYED
54179.0,STARLINK-5122,PAYLOAD,2023-05-16 11:24:09,15.08835632,0.0001158,53.2179,299.8484,88.5896,271.5229,5.8284e-05,6.4e-06,0.0,0 STARLINK-5122,1 54179U 22141Y   23136.47510667  .00000640  00000-0  58284-4 0  9998,2 54179  53.2179 299.8484 0001158  88.5896 271.5229 15.08835632 30864,6917.894,95.438,540.56,538.958,0.0
54179.0,STARLINK-5122,PAYLOAD,2023-05-16 17:45:41,15.0883991,0.000105,53.2179,298.6598,82.6582,277.4529,0.00011112,1.481e-05,0.0,0 STARLINK-5122,1 54179U 22141Y   23136.74006310  .00001481  00000-0  11112-3 0  9995,2 54179  53.2179 298.6598 0001050  82.6582 277.4529 15.08839910 30675,6917.881,95.438,540.472,539.019,0.0
54179.0,STARLINK-5122,PAYLOAD,2023-05-17 17:36:28,15.08839039,0.0001119,53.217,294.2017,87.2816,272.8304,4.9799e-05,5.05e-06,0.0,0 STARLINK-5122,1 54179U 22141Y   23137.73366708  .00000505  00000-0  49799-4 0  9994,2 54179  53.2170 294.2017 0001119  87.2816 272.8304 15.08839039 31056,6917.883,95.438,540.522,538.974,0.0
54179.0,STARLINK-5122,PAYLOAD,2023-05-18 09:30:20,15.08838656,0.0001126,53.2168,291.2277,99.136,260.976,4.4326e-05,4.18e-06,0.0,0 STARLINK-5122,1 54179U 22141Y   23138.39606831  .00000418  00000-0  44326-4 0  9995,2 54179  53.2168 291.2277 0001126  99.1360 260.9760 15.08838656 30925,6917.884,95.438,540.528,538.971,0.0
54179.0,STARLINK-5122,PAYLOAD,2023-05-18 19:02:39,15.08838277,0.0001118,53.2168,289.4433,96.6947,263.4173,3.278e-05,2.34e-06,0.0,0 STARLINK-5122,1 54179U 22141Y   23138.79350953  .00000234  00000-0  32780-4 0  9997,2 54179  53.2168 289.4433 0001118  96.6947 263.4173 15.08838277 30983,6917.886,95.438,540.524,538.977,0.0
54179.0,STARLINK-5122,PAYLOAD,2023-05-19 09:21:07,15.08840111,0.0001101,53.2169,286.7667,97.965,262.1467,0.0001134,1.517e-05,0.0,0 STARLINK-5122,1 54179U 22141Y   23139.38966697  .00001517  00000-0  11340-3 0  9994,2 54179  53.2169 286.7667 0001101  97.9650 262.1467 15.08840111 31073,6917.88,95.438,540.507,538.983,0.0
54179.0,STARLINK-5122,PAYLOAD,2023-05-20 02:50:22,15.08820425,0.0001274,53.2143,283.492,90.453,269.6608,0.00041644,6.342e-05,0.0,0 STARLINK-5122,1 54179U 22141Y   23140.11831547  .00006342  00000-0  41644-3 0  9993,2 54179  53.2143 283.4920 0001274  90.4530 269.6608 15.08820425 31410,6917.94,95.439,540.687,538.924,0.0
54179.0,STARLINK-5122,PAYLOAD,2023-05-20 17:08:49,15.08855534,0.0001065,53.2169,280.8194,77.6894,282.4217,0.00019552,2.827e-05,0.0,0 STARLINK-5122,1 54179U 22141Y   23140.71445602  .00002827  00000-0  19552-3 0  9999,2 54179  53.2169 280.8194 0001065  77.6894 282.4217 15.08855534 31508,6917.833,95.437,540.435,538.961,0.0
54179.0,STARLINK-5122,PAYLOAD,2023-05-21 02:41:08,15.08844405,0.0001352,53.2177,279.0364,68.1999,291.9137,7.2939e-05,8.73e-06,0.0,0 STARLINK-5122,1 54179U 22141Y   23141.11190578  .00000873  00000-0  72939-4 0  9991,2 54179  53.2177 279.0364 0001352  68.1999 291.9137 15.08844405 31563,6917.867,95.437,540.667,538.797,0.0
54179.0,STARLINK-5122,PAYLOAD,2023-05-21 09:02:42,15.08831726,0.0001231,53.217,277.8473,70.0268,290.0857,-2.9461e-05,-7.57e-06,0.0,0 STARLINK-5122,1 54179U 22141Y   23141.37687649 -.00000757  00000-0 -29461-4 0  9994,2 54179  53.2170 277.8473 0001231  70.0268 290.0857 15.08831726 31606,6917.906,95.438,540.622,538.919,0.0
54179.0,STARLINK-5122,PAYLOAD,2023-05-21 15:24:14,15.08835447,0.000132,53.2168,276.6541,88.7749,271.3394,-1.8905e-05,-5.89e-06,0.0,0 STARLINK-5122,1 54179U 22141Y   23141.64183445 -.00000589  00000-0 -18905-4 0  9993,2 54179  53.2168 276.6541 0001320  88.7749 271.3394 15.08835447 31416,6917.894,95.438,540.672,538.846,0.0
54179.0,STARLINK-5122,PAYLOAD,2023-05-22 02:31:56,15.0883874,0.0001228,53.2172,274.5725,87.0124,273.1009,3.9495e-05,3.41e-06,0.0,0 STARLINK-5122,1 54179U 22141Y   23142.10551130  .00000341  00000-0  39495-4 0  9996,2 54179  53.2172 274.5725 0001228  87.0124 273.1009 15.08838740 31713,6917.884,95.438,540.599,538.9,0.0
54179.0,STARLINK-5122,PAYLOAD,2023-05-22 08:53:28,15.08846051,0.0001116,53.2164,273.3836,83.5339,276.578,0.00010402,1.368e-05,0.0,0 STARLINK-5122,1 54179U 22141Y   23142.37046550  .00001368  00000-0  10402-3 0  9996,2 54179  53.2164 273.3836 0001116  83.5339 276.5780 15.08846051 31750,6917.862,95.437,540.499,538.955,0.0
54179.0,STARLINK-5122,PAYLOAD,2023-05-22 15:15:00,15.0885386,0.0001081,53.2159,272.1933,100.9209,259.1905,0.00017089,2.434e-05,0.0,0 STARLINK-5122,1 54179U 22141Y   23142.63542295  .00002434  00000-0  17089-3 0  9995,2 54179  53.2159 272.1933 0001081 100.9209 259.1905 15.08853860 31561,6917.838,95.437,540.451,538.955,0.0
54179.0,STARLINK-5122,PAYLOAD,2023-05-23 08:44:15,15.08837846,9.95e-05,53.2153,268.9233,91.9154,268.1952,0.00023178,3.403e-05,0.0,0 STARLINK-5122,1 54179U 22141Y   23143.36407286  .00003403  00000-0  23178-3 0  9999,2 54179  53.2153 268.9233 0000995  91.9154 268.1952 15.08837846 31908,6917.887,95.438,540.44,539.064,0.0
54179.0,STARLINK-5122,PAYLOAD,2023-05-23 15:05:48,15.08838267,0.0001033,53.2158,267.7305,117.6366,242.4731,8.5585e-05,1.075e-05,0.0,0 STARLINK-5122,1 54179U 22141Y   23143.62903138  .00001075  00000-0  85585-4 0  9999,2 54179  53.2158 267.7305 0001033 117.6366 242.4731 15.08838267 31712,6917.886,95.438,540.465,539.036,0.0
54179.0,STARLINK-5122,PAYLOAD,2023-05-24 13:21:12,15.08841632,0.0001213,53.2155,263.5664,115.5527,244.5591,-6.9933e-06,-3.99e-06,0.0,0 STARLINK-5122,1 54179U 22141Y   23144.55639083 -.00000399  00000-0 -69933-5 0  9997,2 54179  53.2155 263.5664 0001213 115.5527 244.5591 15.08841632 32085,6917.875,95.437,540.58,538.901,0.0
54179.0,STARLINK-5122,PAYLOAD,2023-05-26 13:02:46,15.08843398,9.89e-05,53.2157,254.6499,94.0255,266.085,9.7552e-05,1.265e-05,0.0,0 STARLINK-5122,1 54179U 22141Y   23146.54359212  .00001265  00000-0  97552-4 0  9999,2 54179  53.2157 254.6499 0000989  94.0255 266.0850 15.08843398 32158,6917.87,95.437,540.419,539.051,0.0
54179.0,STARLINK-5122,PAYLOAD,2023-05-26 16:13:32,15.08846399,9.93e-05,53.2158,254.0549,92.6622,267.4484,0.000131,1.798e-05,0.0,0 STARLINK-5122,1 54179U 22141Y   23146.67607033  .00001798  00000-0  13100-3 0  9997,2 54179  53.2158 254.0549 0000993  92.6622 267.4484 15.08846399 32406,6917.861,95.437,540.413,539.039,0.0
54179.0,STARLINK-5122,PAYLOAD,2023-05-27 00:10:28,15.08839381,9.52e-05,53.2154,252.5678,93.3766,266.7335,3.9245e-06,-2.25e-06,0.0,0 STARLINK-5122,1 54179U 22141Y   23147.00727317 -.00000225  00000-0  39245-5 0  9998,2 54179  53.2154 252.5678 0000952  93.3766 266.7335 15.08839381 32455,6917.882,95.438,540.406,539.089,0.0
54179.0,STARLINK-5122,PAYLOAD,2023-05-27 16:04:19,15.08841744,9.82e-05,53.2163,249.5939,101.0349,259.0753,0.00010657,1.409e-05,0.0,0 STARLINK-5122,1 54179U 22141Y   23147.66967441  .00001409  00000-0  10657-3 0  9992,2 54179  53.2163 249.5939 0000982 101.0349 259.0753 15.08841744 32329,6917.875,95.437,540.419,539.061,0.0
54179.0,STARLINK-5122,PAYLOAD,2023-05-28 06:22:48,15.08844097,9.58e-05,53.2165,246.9171,100.7463,259.3637,4.5502e-05,4.37e-06,0.0,0 STARLINK-5122,1 54179U 22141Y   23148.26583453  .00000437  00000-0  45502-4 0  9994,2 54179  53.2165 246.9171 0000958 100.7463 259.3637 15.08844097 32414,6917.868,95.437,540.396,539.07,0.0
54179.0,STARLINK-5122,PAYLOAD,2023-05-28 11:08:57,15.0884825,9.47e-05,53.2163,246.0255,98.19,261.9199,8.2552e-05,1.027e-05,0.0,0 STARLINK-5122,1 54179U 22141Y   23148.46454997  .00001027  00000-0  82552-4 0  9998,2 54179  53.2163 246.0255 0000947  98.1900 261.9199 15.08848250 32675,6917.855,95.437,540.375,539.065,0.0
54179.0,STARLINK-5122,PAYLOAD,2023-05-28 12:44:20,15.08849431,9.55e-05,53.2163,245.7281,98.7404,261.3697,9.1284e-05,1.166e-05,0.0,0 STARLINK-5122,1 54179U 22141Y   23148.53078881  .00001166  00000-0  91284-4 0  9996,2 54179  53.2163 245.7281 0000955  98.7404 261.3697 15.08849431 32459,6917.852,95.437,540.377,539.056,0.0
54179.0,STARLINK-5122,PAYLOAD,2023-05-29 06:13:34,15.08841111,9.49e-05,53.2158,242.4576,93.2258,266.8843,0.00010068,1.315e-05,0.0,0 STARLINK-5122,1 54179U 22141Y   23149.25943251  .00001315  00000-0  10068-3 0  9994,2 54179  53.2158 242.4576 0000949  93.2258 266.8843 15.08841111 32791,6917.877,95.437,540.398,539.085,0.0
54179.0,STARLINK-5122,PAYLOAD,2023-05-29 12:35:07,15.08842504,9.24e-05,53.216,241.2687,89.2925,270.8173,4.9977e-05,5.08e-06,0.0,0 STARLINK-5122,1 54179U 22141Y   23149.52439262  .00000508  00000-0  49977-4 0  9991,2 54179  53.2160 241.2687 0000924  89.2925 270.8173 15.08842504 32601,6917.873,95.437,540.377,539.099,0.0
54179.0,STARLINK-5122,PAYLOAD,2023-05-30 09:15:08,15.08838651,9.29e-05,53.2155,237.4028,87.8292,272.2806,3.4266e-06,-2.33e-06,0.0,0 STARLINK-5122,1 54179U 22141Y   23150.38551552 -.00000233  00000-0  34266-5 0  9996,2 54179  53.2155 237.4028 0000929  87.8292 272.2806 15.08838651 32963,6917.885,95.438,540.392,539.107,0.0
54179.0,STARLINK-5122,PAYLOAD,2023-05-30 12:25:54,15.08839068,9.6e-05,53.2159,236.8087,79.3222,280.7878,-1.2163e-05,-4.81e-06,0.0,0 STARLINK-5122,1 54179U 22141Y   23150.51799587 -.00000481  00000-0 -12163-4 0  9990,2 54179  53.2159 236.8087 0000960  79.3222 280.7878 15.08839068 32752,6917.883,95.438,540.412,539.084,0.0
54179.0,STARLINK-5122,PAYLOAD,2023-05-31 10:41:18,15.08839159,9.6e-05,53.2159,232.6455,71.5279,288.5818,7.0068e-05,8.28e-06,0.0,0 STARLINK-5122,1 54179U 22141Y   23151.44535415  .00000828  00000-0  70068-4 0  9992,2 54179  53.2159 232.6455 0000960  71.5279 288.5818 15.08839159 33124,6917.883,95.438,540.412,539.084,0.0
54179.0,STARLINK-5122,PAYLOAD,2023-05-31 21:49:00,15.08838518,9.03e-05,53.216,230.5635,81.173,278.9365,6.9373e-06,-1.77e-06,0.0,0 STARLINK-5122,1 54179U 22141Y   23151.90903652 -.00000177  00000-0  69373-5 0  9991,2 54179  53.2160 230.5635 0000903  81.1730 278.9365 15.08838518 32968,6917.885,95.438,540.375,539.125,0.0
